{
  "type": "FeatureCollection",
  "features": [
    {
      "type": "Feature",
      "properties": {
        "norad_id": 28054,
        "name": "DMSP 5D-3 F16 (USA 172)",
        "group": "weather",
        "lat": 79.71999467510447,
        "lon": -100.62828962671705,
        "alt_km": 841.3531543839117,
        "timestamp": "2025-12-26T20:30:45.580496+00:00",
        "meta_object_name": "DMSP 5D-3 F16 (USA 172)",
        "meta_object_id": "2003-048A",
        "meta_epoch": "2025-12-26T13:44:48.692256",
        "meta_mean_motion": 14.14429016,
        "meta_eccentricity": 0.00062431,
        "meta_inclination": 99.0038,
        "meta_ra_of_asc_node": 18.1379,
        "meta_arg_of_pericenter": 276.4182,
        "meta_mean_anomaly": 183.8785,
        "meta_ephemeris_type": 0,
        "meta_classification_type": "U",
        "meta_norad_cat_id": 28054,
        "meta_element_set_no": 999,
        "meta_rev_at_epoch": 14508,
        "meta_bstar": 8.8263469e-05,
        "meta_mean_motion_dot": 1.23e-06,
        "meta_mean_motion_ddot": 0,
        "tle_line1": "1 28054U 03048A   25360.57278579  .00000123  00000+0  88263-4 0  9996",
        "tle_line2": "2 28054  99.0038  18.1379 0006243 276.4182 183.8785 14.14429016145084"
      },
      "geometry": {
        "type": "Point",
        "coordinates": [
          -100.62828962671705,
          79.71999467510447
        ]
      }
    },
    {
      "type": "Feature",
      "properties": {
        "norad_id": 28912,
        "name": "METEOSAT-9 (MSG-2)",
        "group": "weather",
        "lat": 4.881032594545746,
        "lon": 88.52263820913761,
        "alt_km": 35892.09642116733,
        "timestamp": "2025-12-26T20:30:45.580543+00:00",
        "meta_object_name": "METEOSAT-9 (MSG-2)",
        "meta_object_id": "2005-049B",
        "meta_epoch": "2025-12-24T18:27:10.310976",
        "meta_mean_motion": 1.00268275,
        "meta_eccentricity": 0.00719695,
        "meta_inclination": 8.9553,
        "meta_ra_of_asc_node": 55.846,
        "meta_arg_of_pericenter": 282.2974,
        "meta_mean_anomaly": 77.0088,
        "meta_ephemeris_type": 0,
        "meta_classification_type": "U",
        "meta_norad_cat_id": 28912,
        "meta_element_set_no": 999,
        "meta_rev_at_epoch": 524,
        "meta_bstar": 0,
        "meta_mean_motion_dot": 1.45e-06,
        "meta_mean_motion_ddot": 0,
        "tle_line1": "1 28912U 05049B   25358.76886934  .00000145  00000+0  00000+0 0  9992",
        "tle_line2": "2 28912   8.9553  55.8460 0071969 282.2974  77.0088  1.00268275  5240"
      },
      "geometry": {
        "type": "Point",
        "coordinates": [
          88.52263820913761,
          4.881032594545746
        ]
      }
    },
    {
      "type": "Feature",
      "properties": {
        "norad_id": 29522,
        "name": "DMSP 5D-3 F17 (USA 191)",
        "group": "weather",
        "lat": 58.90020899328165,
        "lon": -8.823420494184845,
        "alt_km": 840.7544483245993,
        "timestamp": "2025-12-26T20:30:45.580558+00:00",
        "meta_object_name": "DMSP 5D-3 F17 (USA 191)",
        "meta_object_id": "2006-050A",
        "meta_epoch": "2025-12-26T13:26:26.992896",
        "meta_mean_motion": 14.14925425,
        "meta_eccentricity": 0.00100074,
        "meta_inclination": 98.7393,
        "meta_ra_of_asc_node": 5.6613,
        "meta_arg_of_pericenter": 183.8317,
        "meta_mean_anomaly": 176.2782,
        "meta_ephemeris_type": 0,
        "meta_classification_type": "U",
        "meta_norad_cat_id": 29522,
        "meta_element_set_no": 999,
        "meta_rev_at_epoch": 98800,
        "meta_bstar": 0.00011417174,
        "meta_mean_motion_dot": 1.77e-06,
        "meta_mean_motion_ddot": 0,
        "tle_line1": "1 29522U 06050A   25360.56003464  .00000177  00000+0  11417-3 0  9996",
        "tle_line2": "2 29522  98.7393   5.6613 0010007 183.8317 176.2782 14.14925425988006"
      },
      "geometry": {
        "type": "Point",
        "coordinates": [
          -8.823420494184845,
          58.90020899328165
        ]
      }
    },
    {
      "type": "Feature",
      "properties": {
        "norad_id": 32958,
        "name": "FENGYUN 3A",
        "group": "weather",
        "lat": 7.148188461316344,
        "lon": -61.0112312932698,
        "alt_km": 830.1217832825987,
        "timestamp": "2025-12-26T20:30:45.580570+00:00",
        "meta_object_name": "FENGYUN 3A",
        "meta_object_id": "2008-026A",
        "meta_epoch": "2025-12-26T13:42:43.248096",
        "meta_mean_motion": 14.19518916,
        "meta_eccentricity": 0.00076087,
        "meta_inclination": 98.6714,
        "meta_ra_of_asc_node": 299.808,
        "meta_arg_of_pericenter": 265.4232,
        "meta_mean_anomaly": 94.6075,
        "meta_ephemeris_type": 0,
        "meta_classification_type": "U",
        "meta_norad_cat_id": 32958,
        "meta_element_set_no": 999,
        "meta_rev_at_epoch": 91091,
        "meta_bstar": 8.5187912e-05,
        "meta_mean_motion_dot": 1.36e-06,
        "meta_mean_motion_ddot": 0,
        "tle_line1": "1 32958U 08026A   25360.57133389  .00000136  00000+0  85188-4 0  9991",
        "tle_line2": "2 32958  98.6714 299.8080 0007608 265.4232  94.6075 14.19518916910911"
      },
      "geometry": {
        "type": "Point",
        "coordinates": [
          -61.0112312932698,
          7.148188461316344
        ]
      }
    },
    {
      "type": "Feature",
      "properties": {
        "norad_id": 35491,
        "name": "GOES 14",
        "group": "weather",
        "lat": -0.42962603705067687,
        "lon": -75.37150986390968,
        "alt_km": 35831.9427674234,
        "timestamp": "2025-12-26T20:30:45.580583+00:00",
        "meta_object_name": "GOES 14",
        "meta_object_id": "2009-033A",
        "meta_epoch": "2025-12-26T12:10:38.040672",
        "meta_mean_motion": 1.00097067,
        "meta_eccentricity": 7.661e-05,
        "meta_inclination": 1.2376,
        "meta_ra_of_asc_node": 85.2609,
        "meta_arg_of_pericenter": 194.3443,
        "meta_mean_anomaly": 239.8772,
        "meta_ephemeris_type": 0,
        "meta_classification_type": "U",
        "meta_norad_cat_id": 35491,
        "meta_element_set_no": 999,
        "meta_rev_at_epoch": 486,
        "meta_bstar": 0,
        "meta_mean_motion_dot": 4.3e-07,
        "meta_mean_motion_ddot": 0,
        "tle_line1": "1 35491U 09033A   25360.50738473  .00000043  00000+0  00000+0 0  9995",
        "tle_line2": "2 35491   1.2376  85.2609 0000766 194.3443 239.8772  1.00097067  4866"
      },
      "geometry": {
        "type": "Point",
        "coordinates": [
          -75.37150986390968,
          -0.42962603705067687
        ]
      }
    },
    {
      "type": "Feature",
      "properties": {
        "norad_id": 35951,
        "name": "DMSP 5D-3 F18 (USA 210)",
        "group": "weather",
        "lat": -76.60711883712042,
        "lon": 18.25594388455795,
        "alt_km": 852.5681070902929,
        "timestamp": "2025-12-26T20:30:45.580594+00:00",
        "meta_object_name": "DMSP 5D-3 F18 (USA 210)",
        "meta_object_id": "2009-057A",
        "meta_epoch": "2025-12-26T14:06:01.404864",
        "meta_mean_motion": 14.14778364,
        "meta_eccentricity": 0.00116389,
        "meta_inclination": 98.8851,
        "meta_ra_of_asc_node": 336.9201,
        "meta_arg_of_pericenter": 26.0821,
        "meta_mean_anomaly": 334.0936,
        "meta_ephemeris_type": 0,
        "meta_classification_type": "U",
        "meta_norad_cat_id": 35951,
        "meta_element_set_no": 999,
        "meta_rev_at_epoch": 83518,
        "meta_bstar": 0.0001759165,
        "meta_mean_motion_dot": 2.95e-06,
        "meta_mean_motion_ddot": 0,
        "tle_line1": "1 35951U 09057A   25360.58751626  .00000295  00000+0  17592-3 0  9992",
        "tle_line2": "2 35951  98.8851 336.9201 0011638  26.0821 334.0936 14.14778364835184"
      },
      "geometry": {
        "type": "Point",
        "coordinates": [
          18.25594388455795,
          -76.60711883712042
        ]
      }
    },
    {
      "type": "Feature",
      "properties": {
        "norad_id": 36411,
        "name": "EWS-G2 (GOES 15)",
        "group": "weather",
        "lat": 0.2878920690059401,
        "lon": 104.60188492249718,
        "alt_km": 35808.77700137492,
        "timestamp": "2025-12-26T20:30:45.580606+00:00",
        "meta_object_name": "EWS-G2 (GOES 15)",
        "meta_object_id": "2010-008A",
        "meta_epoch": "2025-12-26T01:20:32.726976",
        "meta_mean_motion": 1.00270948,
        "meta_eccentricity": 0.00056288,
        "meta_inclination": 0.8445,
        "meta_ra_of_asc_node": 86.073,
        "meta_arg_of_pericenter": 179.6686,
        "meta_mean_anomaly": 270.5509,
        "meta_ephemeris_type": 0,
        "meta_classification_type": "U",
        "meta_norad_cat_id": 36411,
        "meta_element_set_no": 999,
        "meta_rev_at_epoch": 5790,
        "meta_bstar": 0,
        "meta_mean_motion_dot": 6e-07,
        "meta_mean_motion_ddot": 0,
        "tle_line1": "1 36411U 10008A   25360.05593434  .00000060  00000+0  00000+0 0  9997",
        "tle_line2": "2 36411   0.8445  86.0730 0005628 179.6686 270.5509  1.00270948 57906"
      },
      "geometry": {
        "type": "Point",
        "coordinates": [
          104.60188492249718,
          0.2878920690059401
        ]
      }
    }
  ]
}